IRIDIUM 144             
1 43249U 18030A   24237.19712249  .00000069  00000+0  17627-4 0  9998
2 43249  86.3992 207.0484 0001982  87.2277 272.9145 14.34215451335279
IRIDIUM 149             
1 43250U 18030B   24237.20345905  .00000179  00000+0  56791-4 0  9990
2 43250  86.3993 207.0200 0002169  91.4440 268.7005 14.34212989335276
IRIDIUM 145             
1 43253U 18030E   24236.67067886  .00000013  00000+0 -25792-5 0  9998
2 43253  86.3993 207.2691 0001787  90.2149 269.9251 14.34213992335162
IRIDIUM 146             
1 43254U 18030F   24237.00050086  .00000706  00000+0  24490-3 0  9991
2 43254  86.3992 207.1456 0002155  86.9896 273.1546 14.34220165335222
IRIDIUM 142             
1 43256U 18030H   24237.21615059  .00000815  00000+0  28379-3 0  9994
2 43256  86.3989 207.0017 0001913  90.1119 270.0296 14.34216772335258
